STARLINK-36890          
1 68258U 26054AC  26084.75002314 -.01976698  00000+0 -81355-2 0  9999
2 68258  53.1592 231.9936 0001141  48.1071  46.5948 15.88077434  2495
STARLINK-36323          
1 68259U 26054AD  26084.75002314 -.01985554  00000+0 -83482-2 0  9994
2 68259  53.1592 232.0061 0001069  45.5738  43.1018 15.87667805  2539
STARLINK-37056          
1 68260U 26054AE  26084.75002314 -.01968906  00000+0 -80225-2 0  9990
2 68260  53.1591 231.9872 0001092  48.4856  49.2890 15.88264966  2499
TEN-KOH 2               
1 68261U 25241B   26084.83135933  .00008055  00000+0  35470-3 0  9991
2 68261  51.6373 356.1162 0004437 213.2336 146.8363 15.22684335  2206
STARLINK-37162          
1 68262U 26055A   26084.82429609 -.00124759  16878-4 -21618-3 0  9997
2 68262  53.1601 257.1516 0000667  63.4308 296.6792 16.01093546  2224
STARLINK-37156          
1 68263U 26055B   26084.82403421 -.00105341  15259-4 -18048-3 0  9993
2 68263  53.1599 257.1500 0000645  60.7515 299.3581 16.01194068  2227
STARLINK-37163          
1 68264U 26055C   26084.82340564 -.00120364  16519-4 -20389-3 0  9995
2 68264  53.1600 257.1453 0000645  46.5180 313.5905 16.01463961  2228
STARLINK-37133          
1 68265U 26055D   26084.82370947  .00028924  11734-4  56957-4 0  9996
2 68265  53.1597 257.1477 0000544  16.9529 343.1520 16.01399517  2223
STARLINK-37042          
1 68266U 26055E   26084.82300515 -.00126587  17099-4 -21251-3 0  9995
2 68266  53.1600 257.1429 0000657  57.4267 302.6828 16.01643200  2222
STARLINK-37103          
1 68267U 26055F   26084.82266179 -.00122644  16754-4 -20377-3 0  9998
2 68267  53.1601 257.1403 0000658  44.1741 315.9344 16.01803785  2223
STARLINK-36999          
1 68268U 26055G   26084.82235333 -.00125946  17069-4 -20776-3 0  9998
2 68268  53.1599 257.1383 0000623  30.0788 330.0280 16.01939282  2223
STARLINK-36962          
1 68269U 26055H   26084.82202921 -.00310520  46182-4 -51949-3 0  9994
2 68269  53.1599 257.1360 0000363  87.3425 272.7648 16.02001165  2224
