CCSDS_OMM_VERS = 2.0
CREATION_DATE  = 
ORIGINATOR     = 

OBJECT_NAME    = STARLINK-36890
OBJECT_ID      = 2026-054AC
CENTER_NAME    = EARTH
REF_FRAME      = TEME
TIME_SYSTEM    = UTC
MEAN_ELEMENT_THEORY = SGP/SGP4

EPOCH          = 2026-03-25T18:00:01.999296
MEAN_MOTION    = 15.88077434
ECCENTRICITY   = .0001141
INCLINATION    = 53.1592
RA_OF_ASC_NODE = 231.9936
ARG_OF_PERICENTER = 48.1071
MEAN_ANOMALY   = 46.5948

EPHEMERIS_TYPE = 0
CLASSIFICATION_TYPE = U
NORAD_CAT_ID   = 68258
ELEMENT_SET_NO = 999
REV_AT_EPOCH   = 249
BSTAR          = -.81355E-2
MEAN_MOTION_DOT = -.1976698E-1
MEAN_MOTION_DDOT = 0

CCSDS_OMM_VERS = 2.0
CREATION_DATE  = 
ORIGINATOR     = 

OBJECT_NAME    = STARLINK-36323
OBJECT_ID      = 2026-054AD
CENTER_NAME    = EARTH
REF_FRAME      = TEME
TIME_SYSTEM    = UTC
MEAN_ELEMENT_THEORY = SGP/SGP4

EPOCH          = 2026-03-25T18:00:01.999296
MEAN_MOTION    = 15.87667805
ECCENTRICITY   = .0001069
INCLINATION    = 53.1592
RA_OF_ASC_NODE = 232.0061
ARG_OF_PERICENTER = 45.5738
MEAN_ANOMALY   = 43.1018

EPHEMERIS_TYPE = 0
CLASSIFICATION_TYPE = U
NORAD_CAT_ID   = 68259
ELEMENT_SET_NO = 999
REV_AT_EPOCH   = 253
BSTAR          = -.83482E-2
MEAN_MOTION_DOT = -.1985554E-1
MEAN_MOTION_DDOT = 0

CCSDS_OMM_VERS = 2.0
CREATION_DATE  = 
ORIGINATOR     = 

OBJECT_NAME    = STARLINK-37056
OBJECT_ID      = 2026-054AE
CENTER_NAME    = EARTH
REF_FRAME      = TEME
TIME_SYSTEM    = UTC
MEAN_ELEMENT_THEORY = SGP/SGP4

EPOCH          = 2026-03-25T18:00:01.999296
MEAN_MOTION    = 15.88264966
ECCENTRICITY   = .0001092
INCLINATION    = 53.1591
RA_OF_ASC_NODE = 231.9872
ARG_OF_PERICENTER = 48.4856
MEAN_ANOMALY   = 49.2890

EPHEMERIS_TYPE = 0
CLASSIFICATION_TYPE = U
NORAD_CAT_ID   = 68260
ELEMENT_SET_NO = 999
REV_AT_EPOCH   = 249
BSTAR          = -.80225E-2
MEAN_MOTION_DOT = -.1968906E-1
MEAN_MOTION_DDOT = 0

CCSDS_OMM_VERS = 2.0
CREATION_DATE  = 
ORIGINATOR     = 

OBJECT_NAME    = TEN-KOH 2
OBJECT_ID      = 2025-241B
CENTER_NAME    = EARTH
REF_FRAME      = TEME
TIME_SYSTEM    = UTC
MEAN_ELEMENT_THEORY = SGP/SGP4

EPOCH          = 2026-03-25T19:57:09.446112
MEAN_MOTION    = 15.22684335
ECCENTRICITY   = .0004437
INCLINATION    = 51.6373
RA_OF_ASC_NODE = 356.1162
ARG_OF_PERICENTER = 213.2336
MEAN_ANOMALY   = 146.8363

EPHEMERIS_TYPE = 0
CLASSIFICATION_TYPE = U
NORAD_CAT_ID   = 68261
ELEMENT_SET_NO = 999
REV_AT_EPOCH   = 220
BSTAR          = .3547E-3
MEAN_MOTION_DOT = .8055E-4
MEAN_MOTION_DDOT = 0

CCSDS_OMM_VERS = 2.0
CREATION_DATE  = 
ORIGINATOR     = 

OBJECT_NAME    = STARLINK-37162
OBJECT_ID      = 2026-055A
CENTER_NAME    = EARTH
REF_FRAME      = TEME
TIME_SYSTEM    = UTC
MEAN_ELEMENT_THEORY = SGP/SGP4

EPOCH          = 2026-03-25T19:46:59.182176
MEAN_MOTION    = 16.01093546
ECCENTRICITY   = .0000667
INCLINATION    = 53.1601
RA_OF_ASC_NODE = 257.1516
ARG_OF_PERICENTER = 63.4308
MEAN_ANOMALY   = 296.6792

EPHEMERIS_TYPE = 0
CLASSIFICATION_TYPE = U
NORAD_CAT_ID   = 68262
ELEMENT_SET_NO = 999
REV_AT_EPOCH   = 222
BSTAR          = -.21618E-3
MEAN_MOTION_DOT = -.124759E-2
MEAN_MOTION_DDOT = .16878E-4

CCSDS_OMM_VERS = 2.0
CREATION_DATE  = 
ORIGINATOR     = 

OBJECT_NAME    = STARLINK-37156
OBJECT_ID      = 2026-055B
CENTER_NAME    = EARTH
REF_FRAME      = TEME
TIME_SYSTEM    = UTC
MEAN_ELEMENT_THEORY = SGP/SGP4

EPOCH          = 2026-03-25T19:46:36.555744
MEAN_MOTION    = 16.01194068
ECCENTRICITY   = .0000645
INCLINATION    = 53.1599
RA_OF_ASC_NODE = 257.1500
ARG_OF_PERICENTER = 60.7515
MEAN_ANOMALY   = 299.3581

EPHEMERIS_TYPE = 0
CLASSIFICATION_TYPE = U
NORAD_CAT_ID   = 68263
ELEMENT_SET_NO = 999
REV_AT_EPOCH   = 222
BSTAR          = -.18048E-3
MEAN_MOTION_DOT = -.105341E-2
MEAN_MOTION_DDOT = .15259E-4

CCSDS_OMM_VERS = 2.0
CREATION_DATE  = 
ORIGINATOR     = 

OBJECT_NAME    = STARLINK-37163
OBJECT_ID      = 2026-055C
CENTER_NAME    = EARTH
REF_FRAME      = TEME
TIME_SYSTEM    = UTC
MEAN_ELEMENT_THEORY = SGP/SGP4

EPOCH          = 2026-03-25T19:45:42.247296
MEAN_MOTION    = 16.01463961
ECCENTRICITY   = .0000645
INCLINATION    = 53.1600
RA_OF_ASC_NODE = 257.1453
ARG_OF_PERICENTER = 46.5180
MEAN_ANOMALY   = 313.5905

EPHEMERIS_TYPE = 0
CLASSIFICATION_TYPE = U
NORAD_CAT_ID   = 68264
ELEMENT_SET_NO = 999
REV_AT_EPOCH   = 222
BSTAR          = -.20389E-3
MEAN_MOTION_DOT = -.120364E-2
MEAN_MOTION_DDOT = .16519E-4

CCSDS_OMM_VERS = 2.0
CREATION_DATE  = 
ORIGINATOR     = 

OBJECT_NAME    = STARLINK-37133
OBJECT_ID      = 2026-055D
CENTER_NAME    = EARTH
REF_FRAME      = TEME
TIME_SYSTEM    = UTC
MEAN_ELEMENT_THEORY = SGP/SGP4

EPOCH          = 2026-03-25T19:46:08.498208
MEAN_MOTION    = 16.01399517
ECCENTRICITY   = .0000544
INCLINATION    = 53.1597
RA_OF_ASC_NODE = 257.1477
ARG_OF_PERICENTER = 16.9529
MEAN_ANOMALY   = 343.1520

EPHEMERIS_TYPE = 0
CLASSIFICATION_TYPE = U
NORAD_CAT_ID   = 68265
ELEMENT_SET_NO = 999
REV_AT_EPOCH   = 222
BSTAR          = .56957E-4
MEAN_MOTION_DOT = .28924E-3
MEAN_MOTION_DDOT = .11734E-4

CCSDS_OMM_VERS = 2.0
CREATION_DATE  = 
ORIGINATOR     = 

OBJECT_NAME    = STARLINK-37042
OBJECT_ID      = 2026-055E
CENTER_NAME    = EARTH
REF_FRAME      = TEME
TIME_SYSTEM    = UTC
MEAN_ELEMENT_THEORY = SGP/SGP4

EPOCH          = 2026-03-25T19:45:07.644960
MEAN_MOTION    = 16.01643200
ECCENTRICITY   = .0000657
INCLINATION    = 53.1600
RA_OF_ASC_NODE = 257.1429
ARG_OF_PERICENTER = 57.4267
MEAN_ANOMALY   = 302.6828

EPHEMERIS_TYPE = 0
CLASSIFICATION_TYPE = U
NORAD_CAT_ID   = 68266
ELEMENT_SET_NO = 999
REV_AT_EPOCH   = 222
BSTAR          = -.21251E-3
MEAN_MOTION_DOT = -.126587E-2
MEAN_MOTION_DDOT = .17099E-4

CCSDS_OMM_VERS = 2.0
CREATION_DATE  = 
ORIGINATOR     = 

OBJECT_NAME    = STARLINK-37103
OBJECT_ID      = 2026-055F
CENTER_NAME    = EARTH
REF_FRAME      = TEME
TIME_SYSTEM    = UTC
MEAN_ELEMENT_THEORY = SGP/SGP4

EPOCH          = 2026-03-25T19:44:37.978656
MEAN_MOTION    = 16.01803785
ECCENTRICITY   = .0000658
INCLINATION    = 53.1601
RA_OF_ASC_NODE = 257.1403
ARG_OF_PERICENTER = 44.1741
MEAN_ANOMALY   = 315.9344

EPHEMERIS_TYPE = 0
CLASSIFICATION_TYPE = U
NORAD_CAT_ID   = 68267
ELEMENT_SET_NO = 999
REV_AT_EPOCH   = 222
BSTAR          = -.20377E-3
MEAN_MOTION_DOT = -.122644E-2
MEAN_MOTION_DDOT = .16754E-4

CCSDS_OMM_VERS = 2.0
CREATION_DATE  = 
ORIGINATOR     = 

OBJECT_NAME    = STARLINK-36999
OBJECT_ID      = 2026-055G
CENTER_NAME    = EARTH
REF_FRAME      = TEME
TIME_SYSTEM    = UTC
MEAN_ELEMENT_THEORY = SGP/SGP4

EPOCH          = 2026-03-25T19:44:11.327712
MEAN_MOTION    = 16.01939282
ECCENTRICITY   = .0000623
INCLINATION    = 53.1599
RA_OF_ASC_NODE = 257.1383
ARG_OF_PERICENTER = 30.0788
MEAN_ANOMALY   = 330.0280

EPHEMERIS_TYPE = 0
CLASSIFICATION_TYPE = U
NORAD_CAT_ID   = 68268
ELEMENT_SET_NO = 999
REV_AT_EPOCH   = 222
BSTAR          = -.20776E-3
MEAN_MOTION_DOT = -.125946E-2
MEAN_MOTION_DDOT = .17069E-4

CCSDS_OMM_VERS = 2.0
CREATION_DATE  = 
ORIGINATOR     = 

OBJECT_NAME    = STARLINK-36962
OBJECT_ID      = 2026-055H
CENTER_NAME    = EARTH
REF_FRAME      = TEME
TIME_SYSTEM    = UTC
MEAN_ELEMENT_THEORY = SGP/SGP4

EPOCH          = 2026-03-25T19:43:43.323744
MEAN_MOTION    = 16.02001165
ECCENTRICITY   = .0000363
INCLINATION    = 53.1599
RA_OF_ASC_NODE = 257.1360
ARG_OF_PERICENTER = 87.3425
MEAN_ANOMALY   = 272.7648

EPHEMERIS_TYPE = 0
CLASSIFICATION_TYPE = U
NORAD_CAT_ID   = 68269
ELEMENT_SET_NO = 999
REV_AT_EPOCH   = 222
BSTAR          = -.51949E-3
MEAN_MOTION_DOT = -.31052E-2
MEAN_MOTION_DDOT = .46182E-4

